{
    "links": {
        "self": "http://www.neowsapp.com/rest/v1/neo/3731245?api_key=iIulBulltgU6a56xZRHN4H3l9WmuAYTsLGpBGhQ2"
    },
    "id": "3731245",
    "neo_reference_id": "3731245",
    "name": "(2015 TG323)",
    "designation": "2015 TG323",
    "nasa_jpl_url": "http://ssd.jpl.nasa.gov/sbdb.cgi?sstr=3731245",
    "absolute_magnitude_h": 21.0,
    "estimated_diameter": {
        "kilometers": {
            "estimated_diameter_min": 0.1677084622,
            "estimated_diameter_max": 0.3750075218
        },
        "meters": {
            "estimated_diameter_min": 167.7084621628,
            "estimated_diameter_max": 375.0075217981
        },
        "miles": {
            "estimated_diameter_min": 0.1042091748,
            "estimated_diameter_max": 0.2330187988
        },
        "feet": {
            "estimated_diameter_min": 550.2246310023,
            "estimated_diameter_max": 1230.3396778159
        }
    },
    "is_potentially_hazardous_asteroid": false,
    "close_approach_data": [
        {
            "close_approach_date": "2015-08-28",
            "close_approach_date_full": "2015-Aug-28 05:32",
            "epoch_date_close_approach": 1440739920000,
            "relative_velocity": {
                "kilometers_per_second": "11.898631228",
                "kilometers_per_hour": "42835.0724206945",
                "miles_per_hour": "26616.0481938477"
            },
            "miss_distance": {
                "astronomical": "0.222092889",
                "lunar": "86.394133821",
                "kilometers": "33224623.13654643",
                "miles": "20644823.503863534"
            },
            "orbiting_body": "Earth"
        }
    ],
    "orbital_data": {
        "orbit_id": "10",
        "orbit_determination_date": "2017-04-06 08:31:12",
        "first_observation_date": "2015-10-14",
        "last_observation_date": "2015-11-11",
        "data_arc_in_days": 28,
        "observations_used": 34,
        "orbit_uncertainty": "8",
        "minimum_orbit_intersection": ".114313",
        "jupiter_tisserand_invariant": "3.160",
        "epoch_osculation": "2457317.5",
        "eccentricity": ".5584513145789437",
        "semi_major_axis": "2.553087759397314",
        "inclination": "15.14272832370387",
        "ascending_node_longitude": "322.5260979387803",
        "orbital_period": "1490.036963062864",
        "perihelion_distance": "1.127312543926474",
        "perihelion_argument": ".1577474165208282",
        "aphelion_distance": "3.978862974868153",
        "perihelion_time": "2457261.121444942062",
        "mean_anomaly": "13.62132639927094",
        "mean_motion": ".2416047446635133",
        "equinox": "J2000",
        "orbit_class": {
            "orbit_class_type": "AMO",
            "orbit_class_description": "Near-Earth asteroid orbits similar to that of 1221 Amor",
            "orbit_class_range": "1.017 AU < q (perihelion) < 1.3 AU"
        }
    },
    "is_sentry_object": false
}